              TDR Cartesian                         TDR Cartesian  
    -----------------------------------       --------------------------------
     X    =       16950249.31                 X    =         5166435.99
     Y    =        -474999.30  feet           Y    =         -144779.79  meter
     Z    =       14377622.98                 Z    =         4382299.49
     XDOT =      10013.431350                 XDOT =        3052.093875
     YDOT =      18973.850544  feet/sec       YDOT =        5783.229646  meter/sec
     ZDOT =     -11143.690676                 ZDOT =       -3396.596918
  
  
    The mean element set is posted at the UTC for which position is
    just north of the next ascending node relative to the above
    vector time
 
 
    TWO LINE MEAN ELEMENT SET
  
    ISS
    1 25544U 98067A   16114.75599991  .00016717  00000-0  10270-3 0  9048
    2 25544  51.6410 329.5423 0001613  72.4687 287.6642 15.54284437 36515
  
  
    Satellite: ISS
    Catalog Number: 25544
    Epoch time:      16114.75599991   =   yrday.fracday
    Element set:     904
    Inclination:       51.6410  deg
    RA of node:       329.5423  deg
    Eccentricity:     .0001613     
    Arg of perigee:    72.4687  deg
    Mean anomaly:     287.6642  deg
    Mean motion:   15.54284437  rev/day
    Decay rate:    1.67170E-04  rev/day^2
    Epoch rev:            3651
    Checksum:              327
 
 
    Coasting Arc #6 (Orbit 3665)
    ---------------------------------------
 
    Vector Time (GMT): 2016/115/17:08:00.000
    Vector Time (MET): N/A
    Weight (LBS)     : 945238.6
 
              M50 Cartesian                         M50 Keplerian  
    -----------------------------------       --------------------------------
     X    =        2912644.68                 A    =         6784551.29  meter
     Y    =       -5237785.10  meter          E    =           .0006051
     Z    =       -3183266.84                 I    =           51.43556
     XDOT =       5963.101272                 Wp   =           75.25059
     YDOT =        406.853567  meter/sec      RA   =          324.13172  deg
     ZDOT =       4795.871913                 TA   =          247.88480
                                              MA   =          247.94905
                                              Ha   =            221.254  n.mi
                                              Hp   =            213.884
 
              M50 Cartesian                         J2K Cartesian  
    -----------------------------------       --------------------------------
     X    =        9555920.87                 X    =         2986461.66
     Y    =      -17184334.32  feet           Y    =        -5204801.32  meter
     Z    =      -10443788.86                 Z    =        -3168938.23
     XDOT =      19563.980552                 XDOT =        5934.811810
     YDOT =       1334.821414  feet/sec       YDOT =         473.378890  meter/sec
     ZDOT =      15734.487904                 ZDOT =        4824.771002
 
              TDR Cartesian                         TDR Cartesian  
    -----------------------------------       --------------------------------
     X    =      -19400513.39                 X    =        -5913276.48
     Y    =       -3399171.75  feet           Y    =        -1036067.55  meter
     Z    =      -10380530.19                 Z    =        -3163985.60
     XDOT =      -5422.156505                 XDOT =       -1652.673303
     YDOT =     -17394.744796  feet/sec       YDOT =       -5301.918214  meter/sec
     ZDOT =      15859.901062                 ZDOT =        4834.097844
  
  
    The mean element set is posted at the UTC for which position is
    just north of the next ascending node relative to the above
    vector time
 
 
    TWO LINE MEAN ELEMENT SET
  
    ISS
    1 25544U 98067A   16115.72041226  .00016717  00000-0  10270-3 0  9050
    2 25544  51.6421 324.7337 0001524  69.1227 291.0089 15.54311281 36660
  
  
    Satellite: ISS
    Catalog Number: 25544
    Epoch time:      16115.72041226   =   yrday.fracday
    Element set:     905
    Inclination:       51.6421  deg
    RA of node:       324.7337  deg
    Eccentricity:     .0001524     
    Arg of perigee:    69.1227  deg
    Mean anomaly:     291.0089  deg
    Mean motion:   15.54311281  rev/day
    Decay rate:    1.67170E-04  rev/day^2
    Epoch rev:            3666
    Checksum:              284
 
 
    Coasting Arc #7 (Orbit 3681)
    ---------------------------------------
 
    Vector Time (GMT): 2016/116/17:08:00.000
    Vector Time (MET): N/A
    Weight (LBS)     : 945238.6
 
              M50 Cartesian                         M50 Keplerian  
    -----------------------------------       --------------------------------
     X    =       -4070572.94                 A    =         6787735.63  meter
     Y    =        5188038.93  meter          E    =           .0015078
     Z    =        1580454.55                 I    =           51.42126
     XDOT =      -4721.898364                 Wp   =          113.09881
     YDOT =      -1950.290002  meter/sec      RA   =          319.13960  deg
     ZDOT =      -5721.786641                 TA   =           49.55554
                                              MA   =           49.42415
                                              Ha   =            221.248  n.mi
                                              Hp   =            213.824
 
              M50 Cartesian                         J2K Cartesian  
    -----------------------------------       --------------------------------
     X    =      -13354898.11                 X    =        -4135961.66
     Y    =       17021125.08  feet           Y    =         5142153.48  meter
     Z    =        5185218.34                 Z    =         1560521.48
     XDOT =     -15491.792532                 XDOT =       -4671.944325
     YDOT =      -6398.589244  feet/sec       YDOT =       -2002.814182  meter/sec
     ZDOT =     -18772.265883                 ZDOT =       -5744.603485
 
              TDR Cartesian                         TDR Cartesian  
    -----------------------------------       --------------------------------
     X    =       20608473.48                 X    =         6281462.72
     Y    =        6653075.39  feet           Y    =         2027857.38  meter
     Z    =        5097636.74                 Z    =         1553759.68
     XDOT =       -186.630175                 XDOT =         -56.884877
     YDOT =      15133.646036  feet/sec       YDOT =        4612.735312  meter/sec
     ZDOT =     -18870.960064                 ZDOT =       -5751.868628
  
  
    The mean element set is posted at the UTC for which position is
    just north of the next ascending node relative to the above
    vector time
 
 
    TWO LINE MEAN ELEMENT SET
  
    ISS
    1 25544U 98067A   16116.74911434  .00016717  00000-0  10270-3 0  9061
    2 25544  51.6424 319.6038 0001558  74.3310 285.8015 15.54325655 36820
  
  
    Satellite: ISS
    Catalog Number: 25544
    Epoch time:      16116.74911434   =   yrday.fracday
    Element set:     906
    Inclination:       51.6424  deg
    RA of node:       319.6038  deg
    Eccentricity:     .0001558     
    Arg of perigee:    74.3310  deg
    Mean anomaly:     285.8015  deg
    Mean motion:   15.54325655  rev/day
    Decay rate:    1.67170E-04  rev/day^2
    Epoch rev:            3682
    Checksum:              305
 
 
    Coasting Arc #8 (Orbit 3697)
    ---------------------------------------
 
    Vector Time (GMT): 2016/117/17:08:00.000
    Vector Time (MET): N/A
    Weight (LBS)     : 945238.6
 
              M50 Cartesian                         M50 Keplerian  
    -----------------------------------       --------------------------------
     X    =        4815428.88                 A    =         6788723.61  meter
     Y    =       -4773507.53  meter          E    =           .0013978
     Z    =         162739.06                 I    =           51.40141
     XDOT =       3261.709906                 Wp   =           50.18580
     YDOT =       3505.989316  meter/sec      RA   =          314.15270  deg
     ZDOT =       5991.122213                 TA   =          311.57354
                                              MA   =          311.69328
                                              Ha   =            221.275  n.mi
                                              Hp   =            213.731
 
              M50 Cartesian                         J2K Cartesian  
    -----------------------------------       --------------------------------
     X    =       15798651.17                 X    =         4867659.01
     Y    =      -15661113.94  feet           Y    =        -4719366.16  meter
     Z    =         533920.79                 Z    =          186258.45
     XDOT =      10701.147984                 XDOT =        3193.159908
     YDOT =      11502.589620  feet/sec       YDOT =        3542.080671  meter/sec
     ZDOT =      19655.912771                 ZDOT =        6006.800502
 
              TDR Cartesian                         TDR Cartesian  
    -----------------------------------       --------------------------------
     X    =      -20325622.66                 X    =        -6195249.79
     Y    =       -9034171.17  feet           Y    =        -2753615.37  meter
     Z    =         636988.87                 Z    =          194154.21
     XDOT =       6223.481081                 XDOT =        1896.917034
     YDOT =     -12546.545697  feet/sec       YDOT =       -3824.187128  meter/sec
     ZDOT =      19723.303299                 ZDOT =        6011.662845
  
  
    The mean element set is posted at the UTC for which position is
    just north of the next ascending node relative to the above
    vector time
 
 
    TWO LINE MEAN ELEMENT SET
  
    ISS
    1 25544U 98067A   16117.77781183  .00016717  00000-0  10270-3 0  9072
    2 25544  51.6428 314.4748 0001674  74.9451 285.1887 15.54332167 36989
  
